QIANFAN-81              
1 63167U 25046J   26025.92666187  .00000175  00000+0  25184-3 0  9995
2 63167  88.9797 315.3073 0015381   1.2025 358.9160 13.50968198 53452
QIANFAN-82              
1 63168U 25046K   26025.88746313  .00000289  00000+0  42897-3 0  9997
2 63168  88.9796 315.3554 0013739   8.7862 351.3527 13.50995550 53436
QIANFAN-83              
1 63169U 25046L   26025.92562075  .00000354  00000+0  44397-3 0  9994
2 63169  88.9797 315.0412 0014425 351.9238   8.1684 13.61999568 53617
QIANFAN-84              
1 63170U 25046M   26025.91492918  .00000283  00000+0  41988-3 0  9997
2 63170  88.9796 315.4850 0016578   4.0228 356.1053 13.51004906 53364
QIANFAN-85              
1 63171U 25046N   26025.91202494  .00000273  00000+0  40387-3 0  9997
2 63171  88.9796 315.3570 0014071   7.4080 352.7276 13.50994305 53439
QIANFAN-86              
1 63172U 25046P   26025.92033874  .00000291  00000+0  43225-3 0  9997
2 63172  88.9798 315.2194 0012091  12.6375 347.5077 13.50996280 53512
QIANFAN-87              
1 63173U 25046Q   26025.89174132  .00000293  00000+0  43495-3 0  9998
2 63173  88.9794 315.3322 0012586   7.9670 352.1678 13.50993762 53440
QIANFAN-88              
1 63174U 25046R   26025.90788274  .00000259  00000+0  38216-3 0  9996
2 63174  88.9797 315.2862 0013235  15.2352 344.9195 13.50988342 53477
